KUIPER-00035            
1 63748U 25088AA  25354.02219336  .00002027  00000+0  29499-3 0  9992
2 63748  51.9020 106.4038 0006958 164.3574 195.7604 14.79922952 35715
KUIPER-00037            
1 63749U 25088AB  25354.16667823  .00081426  00000+0  10588-1 0  9993
2 63749  51.8993 104.7236 0000752 165.8929 228.2598 14.79906290  3380
KUIPER-00038            
1 63750U 25088AC  25353.97243767 -.00004471  00000+0 -55802-3 0  9997
2 63750  51.9025  90.5883 0008876 153.2448 206.8974 14.79872053 35712
KUIPER-00039            
1 64500U 25134A   25353.87756727  .00002370  00000+0  33984-3 0  9998
2 64500  51.9006 226.0126 0011418  27.3378 332.8183 14.79937662 28251
KUIPER-00040            
1 64501U 25134B   25354.06758150  .00036630  00000+0  48093-2 0  9995
2 64501  51.9003 236.3232 0016930   5.5056 354.6090 14.79825633 28125
KUIPER-00041            
1 64502U 25134C   25354.06659655  .00031633  00000+0  41733-2 0  9998
2 64502  51.8990 237.6826 0012862   8.1787 351.9383 14.79735567 28102
KUIPER-00042            
1 64503U 25134D   25353.12493460  .00003482  00000+0  48598-3 0  9993
2 64503  51.8991 237.8540 0012809  14.1076 346.0242 14.79876117 28025
KUIPER-00043            
1 64504U 25134E   25353.94334861 -.00006925  00000+0 -88084-3 0  9994
2 64504  51.9018 226.6799 0003593  43.3049 316.8195 14.79897655 28250
